[{"OBJECT_NAME":"STARLINK-32779","OBJECT_ID":"2025-034B","EPOCH":"2025-08-23T22:31:07.254624","MEAN_MOTION":15.30191282,"ECCENTRICITY":0.00012191,"INCLINATION":53.157,"RA_OF_ASC_NODE":109.9125,"ARG_OF_PERICENTER":90.3517,"MEAN_ANOMALY":269.7624,"EPHEMERIS_TYPE":0,"CLASSIFICATION_TYPE":"U","NORAD_CAT_ID":63030,"ELEMENT_SET_NO":999,"REV_AT_EPOCH":2862,"BSTAR":0.00079457023,"MEAN_MOTION_DOT":0.00023241,"MEAN_MOTION_DDOT":0},{"OBJECT_NAME":"STARLINK-32716","OBJECT_ID":"2025-034C","EPOCH":"2025-08-23T21:35:52.748448","MEAN_MOTION":15.39635385,"ECCENTRICITY":0.00011442,"INCLINATION":53.1576,"RA_OF_ASC_NODE":100.4386,"ARG_OF_PERICENTER":79.2909,"MEAN_ANOMALY":280.8225,"EPHEMERIS_TYPE":0,"CLASSIFICATION_TYPE":"U","NORAD_CAT_ID":63031,"ELEMENT_SET_NO":999,"REV_AT_EPOCH":2875,"BSTAR":0.00089735576,"MEAN_MOTION_DOT":0.0003568,"MEAN_MOTION_DDOT":0},{"OBJECT_NAME":"STARLINK-32776","OBJECT_ID":"2025-034D","EPOCH":"2025-08-23T21:22:30.412992","MEAN_MOTION":15.3963341,"ECCENTRICITY":0.00013219,"INCLINATION":53.1581,"RA_OF_ASC_NODE":100.3796,"ARG_OF_PERICENTER":83.2762,"MEAN_ANOMALY":276.8393,"EPHEMERIS_TYPE":0,"CLASSIFICATION_TYPE":"U","NORAD_CAT_ID":63032,"ELEMENT_SET_NO":999,"REV_AT_EPOCH":2875,"BSTAR":0.00083917556,"MEAN_MOTION_DOT":0.00033328,"MEAN_MOTION_DDOT":0},{"OBJECT_NAME":"STARLINK-32772","OBJECT_ID":"2025-034E","EPOCH":"2025-08-23T20:55:54.072768","MEAN_MOTION":15.39624088,"ECCENTRICITY":0.00015308,"INCLINATION":53.1578,"RA_OF_ASC_NODE":100.9797,"ARG_OF_PERICENTER":63.4046,"MEAN_ANOMALY":296.7116,"EPHEMERIS_TYPE":0,"CLASSIFICATION_TYPE":"U","NORAD_CAT_ID":63033,"ELEMENT_SET_NO":999,"REV_AT_EPOCH":2874,"BSTAR":0.00074691605,"MEAN_MOTION_DOT":0.00029597,"MEAN_MOTION_DDOT":0},{"OBJECT_NAME":"STARLINK-32830","OBJECT_ID":"2025-034F","EPOCH":"2025-08-23T22:02:37.589568","MEAN_MOTION":15.39617514,"ECCENTRICITY":0.00011945,"INCLINATION":53.1576,"RA_OF_ASC_NODE":100.5549,"ARG_OF_PERICENTER":85.9661,"MEAN_ANOMALY":274.1481,"EPHEMERIS_TYPE":0,"CLASSIFICATION_TYPE":"U","NORAD_CAT_ID":63034,"ELEMENT_SET_NO":999,"REV_AT_EPOCH":2875,"BSTAR":0.00058159525,"MEAN_MOTION_DOT":0.00022932,"MEAN_MOTION_DDOT":0},{"OBJECT_NAME":"STARLINK-32801","OBJECT_ID":"2025-034G","EPOCH":"2025-08-23T22:15:59.945760","MEAN_MOTION":15.39637433,"ECCENTRICITY":9.042e-5,"INCLINATION":53.1575,"RA_OF_ASC_NODE":100.6123,"ARG_OF_PERICENTER":79.5891,"MEAN_ANOMALY":280.5216,"EPHEMERIS_TYPE":0,"CLASSIFICATION_TYPE":"U","NORAD_CAT_ID":63035,"ELEMENT_SET_NO":999,"REV_AT_EPOCH":2874,"BSTAR":0.00082018375,"MEAN_MOTION_DOT":0.00032566,"MEAN_MOTION_DDOT":0},{"OBJECT_NAME":"STARLINK-32818","OBJECT_ID":"2025-034H","EPOCH":"2025-08-23T21:10:14.304000","MEAN_MOTION":15.39649358,"ECCENTRICITY":0.00012892,"INCLINATION":53.1573,"RA_OF_ASC_NODE":101.0386,"ARG_OF_PERICENTER":100.9361,"MEAN_ANOMALY":259.1789,"EPHEMERIS_TYPE":0,"CLASSIFICATION_TYPE":"U","NORAD_CAT_ID":63036,"ELEMENT_SET_NO":999,"REV_AT_EPOCH":2874,"BSTAR":0.00084823236,"MEAN_MOTION_DOT":0.00033712,"MEAN_MOTION_DDOT":0},{"OBJECT_NAME":"STARLINK-32810","OBJECT_ID":"2025-034J","EPOCH":"2025-08-23T20:49:12.346464","MEAN_MOTION":15.39624625,"ECCENTRICITY":0.00016003,"INCLINATION":53.1577,"RA_OF_ASC_NODE":100.9474,"ARG_OF_PERICENTER":134.7312,"MEAN_ANOMALY":225.3824,"EPHEMERIS_TYPE":0,"CLASSIFICATION_TYPE":"U","NORAD_CAT_ID":63037,"ELEMENT_SET_NO":999,"REV_AT_EPOCH":2874,"BSTAR":0.00077569945,"MEAN_MOTION_DOT":0.00030758,"MEAN_MOTION_DDOT":0},{"OBJECT_NAME":"STARLINK-32812","OBJECT_ID":"2025-034K","EPOCH":"2025-08-23T21:56:25.407744","MEAN_MOTION":15.39648265,"ECCENTRICITY":0.00012251,"INCLINATION":53.1572,"RA_OF_ASC_NODE":100.5249,"ARG_OF_PERICENTER":75.5028,"MEAN_ANOMALY":284.6113,"EPHEMERIS_TYPE":0,"CLASSIFICATION_TYPE":"U","NORAD_CAT_ID":63038,"ELEMENT_SET_NO":999,"REV_AT_EPOCH":2875,"BSTAR":0.00053641427,"MEAN_MOTION_DOT":0.00021136,"MEAN_MOTION_DDOT":0},{"OBJECT_NAME":"STARLINK-32811","OBJECT_ID":"2025-034L","EPOCH":"2025-08-23T22:09:20.240352","MEAN_MOTION":15.39665277,"ECCENTRICITY":8.517e-5,"INCLINATION":53.1558,"RA_OF_ASC_NODE":100.5842,"ARG_OF_PERICENTER":121.5796,"MEAN_ANOMALY":238.5292,"EPHEMERIS_TYPE":0,"CLASSIFICATION_TYPE":"U","NORAD_CAT_ID":63039,"ELEMENT_SET_NO":999,"REV_AT_EPOCH":2875,"BSTAR":0.0015802741,"MEAN_MOTION_DOT":0.00063432,"MEAN_MOTION_DDOT":0},{"OBJECT_NAME":"STARLINK-32832","OBJECT_ID":"2025-034M","EPOCH":"2025-08-23T21:55:56.290944","MEAN_MOTION":15.39620544,"ECCENTRICITY":0.00010852,"INCLINATION":53.1572,"RA_OF_ASC_NODE":100.5235,"ARG_OF_PERICENTER":98.4063,"MEAN_ANOMALY":261.7065,"EPHEMERIS_TYPE":0,"CLASSIFICATION_TYPE":"U","NORAD_CAT_ID":63040,"ELEMENT_SET_NO":999,"REV_AT_EPOCH":2875,"BSTAR":0.00066761361,"MEAN_MOTION_DOT":0.00026397,"MEAN_MOTION_DDOT":0},{"OBJECT_NAME":"STARLINK-32820","OBJECT_ID":"2025-034N","EPOCH":"2025-08-23T21:42:33.723072","MEAN_MOTION":15.39631788,"ECCENTRICITY":0.00011436,"INCLINATION":53.1576,"RA_OF_ASC_NODE":100.4659,"ARG_OF_PERICENTER":78.812,"MEAN_ANOMALY":281.3013,"EPHEMERIS_TYPE":0,"CLASSIFICATION_TYPE":"U","NORAD_CAT_ID":63041,"ELEMENT_SET_NO":999,"REV_AT_EPOCH":2875,"BSTAR":0.00050244362,"MEAN_MOTION_DOT":0.00019758,"MEAN_MOTION_DDOT":0},{"OBJECT_NAME":"STARLINK-32795","OBJECT_ID":"2025-034P","EPOCH":"2025-08-23T21:29:12.013152","MEAN_MOTION":15.39651938,"ECCENTRICITY":0.0001165,"INCLINATION":53.1578,"RA_OF_ASC_NODE":100.4061,"ARG_OF_PERICENTER":72.6095,"MEAN_ANOMALY":287.5038,"EPHEMERIS_TYPE":0,"CLASSIFICATION_TYPE":"U","NORAD_CAT_ID":63042,"ELEMENT_SET_NO":999,"REV_AT_EPOCH":2875,"BSTAR":0.00083993598,"MEAN_MOTION_DOT":0.0003338,"MEAN_MOTION_DDOT":0},{"OBJECT_NAME":"STARLINK-32827","OBJECT_ID":"2025-034Q","EPOCH":"2025-08-23T22:28:04.879776","MEAN_MOTION":15.3020488,"ECCENTRICITY":0.00011729,"INCLINATION":53.1581,"RA_OF_ASC_NODE":109.8956,"ARG_OF_PERICENTER":83.7108,"MEAN_ANOMALY":276.4026,"EPHEMERIS_TYPE":0,"CLASSIFICATION_TYPE":"U","NORAD_CAT_ID":63043,"ELEMENT_SET_NO":999,"REV_AT_EPOCH":2862,"BSTAR":0.00043647321,"MEAN_MOTION_DOT":0.00012592,"MEAN_MOTION_DDOT":0},{"OBJECT_NAME":"STARLINK-32735","OBJECT_ID":"2025-034R","EPOCH":"2025-08-23T22:33:59.920704","MEAN_MOTION":15.30196282,"ECCENTRICITY":0.00011358,"INCLINATION":53.1572,"RA_OF_ASC_NODE":109.2146,"ARG_OF_PERICENTER":93.5465,"MEAN_ANOMALY":266.5666,"EPHEMERIS_TYPE":0,"CLASSIFICATION_TYPE":"U","NORAD_CAT_ID":63044,"ELEMENT_SET_NO":999,"REV_AT_EPOCH":2863,"BSTAR":0.00036619061,"MEAN_MOTION_DOT":0.00010501,"MEAN_MOTION_DDOT":0},{"OBJECT_NAME":"STARLINK-32828","OBJECT_ID":"2025-034S","EPOCH":"2025-08-23T21:36:24.676704","MEAN_MOTION":15.30204815,"ECCENTRICITY":7.013e-5,"INCLINATION":53.1588,"RA_OF_ASC_NODE":109.6678,"ARG_OF_PERICENTER":103.2499,"MEAN_ANOMALY":256.858,"EPHEMERIS_TYPE":0,"CLASSIFICATION_TYPE":"U","NORAD_CAT_ID":63045,"ELEMENT_SET_NO":999,"REV_AT_EPOCH":2862,"BSTAR":0.00028765041,"MEAN_MOTION_DOT":8.171e-5,"MEAN_MOTION_DDOT":0},{"OBJECT_NAME":"STARLINK-32738","OBJECT_ID":"2025-034T","EPOCH":"2025-08-23T22:16:28.996032","MEAN_MOTION":15.39620702,"ECCENTRICITY":0.00011317,"INCLINATION":53.1582,"RA_OF_ASC_NODE":100.6144,"ARG_OF_PERICENTER":92.595,"MEAN_ANOMALY":267.5185,"EPHEMERIS_TYPE":0,"CLASSIFICATION_TYPE":"U","NORAD_CAT_ID":63046,"ELEMENT_SET_NO":999,"REV_AT_EPOCH":2875,"BSTAR":0.00052052146,"MEAN_MOTION_DOT":0.00020477,"MEAN_MOTION_DDOT":0},{"OBJECT_NAME":"STARLINK-32590","OBJECT_ID":"2025-034U","EPOCH":"2025-08-23T20:56:22.710912","MEAN_MOTION":15.39630047,"ECCENTRICITY":7.462e-5,"INCLINATION":53.1574,"RA_OF_ASC_NODE":100.9758,"ARG_OF_PERICENTER":104.2886,"MEAN_ANOMALY":255.8201,"EPHEMERIS_TYPE":0,"CLASSIFICATION_TYPE":"U","NORAD_CAT_ID":63047,"ELEMENT_SET_NO":999,"REV_AT_EPOCH":2873,"BSTAR":0.00072525938,"MEAN_MOTION_DOT":0.00028729,"MEAN_MOTION_DDOT":0},{"OBJECT_NAME":"STARLINK-32790","OBJECT_ID":"2025-034V","EPOCH":"2025-08-23T21:49:43.909536","MEAN_MOTION":15.39632345,"ECCENTRICITY":0.00010611,"INCLINATION":53.1573,"RA_OF_ASC_NODE":100.4951,"ARG_OF_PERICENTER":82.373,"MEAN_ANOMALY":277.7395,"EPHEMERIS_TYPE":0,"CLASSIFICATION_TYPE":"U","NORAD_CAT_ID":63048,"ELEMENT_SET_NO":999,"REV_AT_EPOCH":2875,"BSTAR":0.00060150019,"MEAN_MOTION_DOT":0.00023745,"MEAN_MOTION_DDOT":0},{"OBJECT_NAME":"STARLINK-32829","OBJECT_ID":"2025-034W","EPOCH":"2025-08-23T22:23:31.366752","MEAN_MOTION":15.30211039,"ECCENTRICITY":0.00011945,"INCLINATION":53.1584,"RA_OF_ASC_NODE":109.8753,"ARG_OF_PERICENTER":74.235,"MEAN_ANOMALY":285.8782,"EPHEMERIS_TYPE":0,"CLASSIFICATION_TYPE":"U","NORAD_CAT_ID":63049,"ELEMENT_SET_NO":999,"REV_AT_EPOCH":2862,"BSTAR":0.00070297397,"MEAN_MOTION_DOT":0.00020526,"MEAN_MOTION_DDOT":0},{"OBJECT_NAME":"STARLINK-32816","OBJECT_ID":"2025-034X","EPOCH":"2025-08-23T21:53:07.855872","MEAN_MOTION":15.3020732,"ECCENTRICITY":0.0001776,"INCLINATION":53.1605,"RA_OF_ASC_NODE":109.7421,"ARG_OF_PERICENTER":87.7354,"MEAN_ANOMALY":272.385,"EPHEMERIS_TYPE":0,"CLASSIFICATION_TYPE":"U","NORAD_CAT_ID":63050,"ELEMENT_SET_NO":999,"REV_AT_EPOCH":2862,"BSTAR":0.0006746743,"MEAN_MOTION_DOT":0.0001968,"MEAN_MOTION_DDOT":0},{"OBJECT_NAME":"STARLINK-32835","OBJECT_ID":"2025-034Y","EPOCH":"2025-08-23T22:03:46.140192","MEAN_MOTION":15.3020961,"ECCENTRICITY":0.00013283,"INCLINATION":53.1599,"RA_OF_ASC_NODE":109.7949,"ARG_OF_PERICENTER":68.3118,"MEAN_ANOMALY":291.8024,"EPHEMERIS_TYPE":0,"CLASSIFICATION_TYPE":"U","NORAD_CAT_ID":63051,"ELEMENT_SET_NO":999,"REV_AT_EPOCH":2862,"BSTAR":0.00064519687,"MEAN_MOTION_DOT":0.00018804,"MEAN_MOTION_DDOT":0},{"OBJECT_NAME":"STARLINK-11550 [DTC]","OBJECT_ID":"2025-035A","EPOCH":"2025-08-23T18:11:09.460896","MEAN_MOTION":15.70898052,"ECCENTRICITY":0.00034193,"INCLINATION":43.001,"RA_OF_ASC_NODE":128.2058,"ARG_OF_PERICENTER":283.3885,"MEAN_ANOMALY":76.6601,"EPHEMERIS_TYPE":0,"CLASSIFICATION_TYPE":"U","NORAD_CAT_ID":63052,"ELEMENT_SET_NO":999,"REV_AT_EPOCH":3009,"BSTAR":0.0016527436,"MEAN_MOTION_DOT":0.00217831,"MEAN_MOTION_DDOT":0}]
